[{"OBJECT_NAME":"DONGPO 03","OBJECT_ID":"2022-098G","EPOCH":"2026-03-09T23:33:34.890048","MEAN_MOTION":15.70958192,"ECCENTRICITY":0.00010558,"INCLINATION":97.5452,"RA_OF_ASC_NODE":197.1326,"ARG_OF_PERICENTER":261.4023,"MEAN_ANOMALY":98.7119,"EPHEMERIS_TYPE":0,"CLASSIFICATION_TYPE":"U","NORAD_CAT_ID":53450,"ELEMENT_SET_NO":999,"REV_AT_EPOCH":19946,"BSTAR":0.0010143925,"MEAN_MOTION_DOT":0.00128253,"MEAN_MOTION_DDOT":0},{"OBJECT_NAME":"STARLINK-11460 [DTC]","OBJECT_ID":"2024-217N","EPOCH":"2026-03-09T09:33:30.180672","MEAN_MOTION":15.69772082,"ECCENTRICITY":0.00017592,"INCLINATION":53.1577,"RA_OF_ASC_NODE":72.9929,"ARG_OF_PERICENTER":67.9448,"MEAN_ANOMALY":292.1757,"EPHEMERIS_TYPE":0,"CLASSIFICATION_TYPE":"U","NORAD_CAT_ID":62069,"ELEMENT_SET_NO":999,"REV_AT_EPOCH":7506,"BSTAR":0.0016413647,"MEAN_MOTION_DOT":0.00203744,"MEAN_MOTION_DDOT":0}]
